*******************************************************************************
Ephemeris / WWW_USER Mon Mar 24 09:07:38 2025 Pasadena, USA      / Horizons    
*******************************************************************************
Target body name: Lemmon (C/2018 EF9)             {source: JPL#18}
Center body name: Earth (399)                     {source: DE441}
Center-site name: Mauna Kea
*******************************************************************************
Start time      : A.D. 2018-Oct-27 04:00:00.0000 UT      
Stop  time      : A.D. 2018-Oct-27 16:11:00.0000 UT      
Step-size       : 1 minutes
*******************************************************************************
Target pole/equ : undefined
Target radii    : undefined                                                    
Center geodetic : 204.5278, 19.8260847, 4.21024   {E-lon(deg),Lat(deg),Alt(km)}
Center cylindric: 204.5278, 6006.35451, 2151.0229 {E-lon(deg),Dxy(km),Dz(km)}
Center pole/equ : ITRF93                          {East-longitude positive}
Center radii    : 6378.137, 6378.137, 6356.752 km {Equator_a, b, pole_c}       
Target primary  : Sun
Vis. interferer : MOON (R_eq= 1737.400) km        {source: DE441}
Rel. light bend : Sun                             {source: DE441}
Rel. lght bnd GM: 1.3271E+11 km^3/s^2                                          
Small-body perts: Yes                             {source: SB441-N16}
Atmos refraction: NO (AIRLESS)
RA format       : HMS
Time format     : CAL 
Calendar mode   : Mixed Julian/Gregorian
RTS-only print  : NO       
EOP file        : eop.250321.p250617                                           
EOP coverage    : DATA-BASED 1962-JAN-20 TO 2025-MAR-21. PREDICTS-> 2025-JUN-16
Units conversion: 1 au= 149597870.700 km, c= 299792.458 km/s, 1 day= 86400.0 s 
Table cut-offs 1: Elevation (-90.0deg=NO ),Airmass (>38.000=NO), Daylight (YES)
Table cut-offs 2: Solar elongation (  0.0,180.0=NO ),Local Hour Angle( 0.0=NO )
Table cut-offs 3: RA/DEC angular rate (     0.0=NO )                           
*******************************************************************************
Initial IAU76/J2000 heliocentric ecliptic osculating elements (au, days, deg.):
  EPOCH=  2458226.5 ! 2018-Apr-18.0000000 (TDB)    RMSW= n.a.                  
   EC= .9975741722198472   QR= 1.55663257903246    TP= 2458261.6283815675      
   OM= 172.5780664128357   W= 72.61657512148747    IN= 84.69445280104227       
  Equivalent ICRF heliocentric cartesian coordinates (au, au/d):
   X=-1.091857230976521E+00  Y=-4.544188696153424E-01  Z= 1.120998862172552E+00
  VX= 1.630642470498751E-02 VY=-6.481787118028984E-03 VZ= 7.403953065693920E-03
Comet physical (GM= km^3/s^2; RAD= km):                                        
   GM= n.a.                RAD= n.a.                                           
   M1=  8.6      M2=  17.8     k1=  45.25  k2=  5.      PHCOF=  .030           
*******************************************************************************
 Date__(UT)__HR:MN     R.A._________(ICRF)_________DEC
******************************************************
$$SOE
 2018-Oct-27 08:10  m  20 59 58.307792 +21 43 25.23372
 2018-Oct-27 08:11  m  20 59 58.347718 +21 43 23.87049
 2018-Oct-27 08:12  m  20 59 58.387648 +21 43 22.50726
 2018-Oct-27 08:13  m  20 59 58.427583 +21 43 21.14403
 2018-Oct-27 08:14  m  20 59 58.467521 +21 43 19.78080
 2018-Oct-27 08:15  m  20 59 58.507464 +21 43 18.41757
 2018-Oct-27 08:16  m  20 59 58.547411 +21 43 17.05434
 2018-Oct-27 08:17  m  20 59 58.587363 +21 43 15.69111
 2018-Oct-27 08:18  m  20 59 58.627318 +21 43 14.32788
 2018-Oct-27 08:19  m  20 59 58.667278 +21 43 12.96466
 2018-Oct-27 08:20  m  20 59 58.707242 +21 43 11.60143
 2018-Oct-27 08:21  m  20 59 58.747211 +21 43 10.23820
 2018-Oct-27 08:22  m  20 59 58.787184 +21 43 08.87497
 2018-Oct-27 08:23  m  20 59 58.827161 +21 43 07.51175
 2018-Oct-27 08:24  m  20 59 58.867143 +21 43 06.14852
 2018-Oct-27 08:25  m  20 59 58.907129 +21 43 04.78529
 2018-Oct-27 08:26  m  20 59 58.947119 +21 43 03.42207
 2018-Oct-27 08:27  m  20 59 58.987114 +21 43 02.05885
 2018-Oct-27 08:28  m  20 59 59.027113 +21 43 00.69563
 2018-Oct-27 08:29  m  20 59 59.067117 +21 42 59.33241
 2018-Oct-27 08:30  m  20 59 59.107125 +21 42 57.96919
 2018-Oct-27 08:31  m  20 59 59.147138 +21 42 56.60597
 2018-Oct-27 08:32  m  20 59 59.187155 +21 42 55.24275
 2018-Oct-27 08:33  m  20 59 59.227176 +21 42 53.87954
 2018-Oct-27 08:34  m  20 59 59.267203 +21 42 52.51633
 2018-Oct-27 08:35  m  20 59 59.307233 +21 42 51.15312
 2018-Oct-27 08:36  m  20 59 59.347269 +21 42 49.78991
 2018-Oct-27 08:37  m  20 59 59.387308 +21 42 48.42670
 2018-Oct-27 08:38  m  20 59 59.427353 +21 42 47.06350
 2018-Oct-27 08:39  m  20 59 59.467402 +21 42 45.70030
 2018-Oct-27 08:40  m  20 59 59.507455 +21 42 44.33710
 2018-Oct-27 08:41  m  20 59 59.547514 +21 42 42.97390
 2018-Oct-27 08:42  m  20 59 59.587576 +21 42 41.61071
 2018-Oct-27 08:43  m  20 59 59.627644 +21 42 40.24751
 2018-Oct-27 08:44  m  20 59 59.667716 +21 42 38.88432
 2018-Oct-27 08:45  m  20 59 59.707793 +21 42 37.52114
 2018-Oct-27 08:46  m  20 59 59.747874 +21 42 36.15795
 2018-Oct-27 08:47  m  20 59 59.787960 +21 42 34.79477
 2018-Oct-27 08:48  m  20 59 59.828051 +21 42 33.43160
 2018-Oct-27 08:49  m  20 59 59.868147 +21 42 32.06842
 2018-Oct-27 08:50  m  20 59 59.908247 +21 42 30.70525
 2018-Oct-27 08:51  m  20 59 59.948352 +21 42 29.34209
 2018-Oct-27 08:52  m  20 59 59.988462 +21 42 27.97892
 2018-Oct-27 08:53  m  21 00 00.028577 +21 42 26.61577
 2018-Oct-27 08:54  m  21 00 00.068696 +21 42 25.25261
 2018-Oct-27 08:55  m  21 00 00.108820 +21 42 23.88946
 2018-Oct-27 08:56  m  21 00 00.148949 +21 42 22.52631
 2018-Oct-27 08:57  m  21 00 00.189083 +21 42 21.16317
 2018-Oct-27 08:58  m  21 00 00.229221 +21 42 19.80003
 2018-Oct-27 08:59  m  21 00 00.269365 +21 42 18.43689
 2018-Oct-27 09:00  m  21 00 00.309513 +21 42 17.07376
 2018-Oct-27 09:01  m  21 00 00.349666 +21 42 15.71064
 2018-Oct-27 09:02  m  21 00 00.389825 +21 42 14.34752
 2018-Oct-27 09:03  m  21 00 00.429988 +21 42 12.98440
 2018-Oct-27 09:04  m  21 00 00.470155 +21 42 11.62129
 2018-Oct-27 09:05  m  21 00 00.510328 +21 42 10.25818
 2018-Oct-27 09:06  m  21 00 00.550506 +21 42 08.89508
 2018-Oct-27 09:07  m  21 00 00.590689 +21 42 07.53198
 2018-Oct-27 09:08  m  21 00 00.630876 +21 42 06.16889
 2018-Oct-27 09:09  m  21 00 00.671069 +21 42 04.80581
 2018-Oct-27 09:10  m  21 00 00.711266 +21 42 03.44273
 2018-Oct-27 09:11  m  21 00 00.751469 +21 42 02.07965
 2018-Oct-27 09:12  m  21 00 00.791676 +21 42 00.71658
 2018-Oct-27 09:13  m  21 00 00.831889 +21 41 59.35352
 2018-Oct-27 09:14  m  21 00 00.872106 +21 41 57.99047
 2018-Oct-27 09:15  m  21 00 00.912329 +21 41 56.62741
 2018-Oct-27 09:16  m  21 00 00.952556 +21 41 55.26437
 2018-Oct-27 09:17  m  21 00 00.992789 +21 41 53.90133
 2018-Oct-27 09:18  m  21 00 01.033026 +21 41 52.53830
 2018-Oct-27 09:19  m  21 00 01.073269 +21 41 51.17528
 2018-Oct-27 09:20  m  21 00 01.113517 +21 41 49.81226
 2018-Oct-27 09:21  m  21 00 01.153770 +21 41 48.44924
 2018-Oct-27 09:22  m  21 00 01.194028 +21 41 47.08624
 2018-Oct-27 09:23  m  21 00 01.234291 +21 41 45.72324
 2018-Oct-27 09:24  m  21 00 01.274559 +21 41 44.36025
 2018-Oct-27 09:25  m  21 00 01.314832 +21 41 42.99727
 2018-Oct-27 09:26  m  21 00 01.355111 +21 41 41.63429
 2018-Oct-27 09:27  m  21 00 01.395394 +21 41 40.27132
 2018-Oct-27 09:28  m  21 00 01.435683 +21 41 38.90836
 2018-Oct-27 09:29  m  21 00 01.475977 +21 41 37.54541
 2018-Oct-27 09:30  m  21 00 01.516276 +21 41 36.18246
 2018-Oct-27 09:31  m  21 00 01.556580 +21 41 34.81952
 2018-Oct-27 09:32  m  21 00 01.596890 +21 41 33.45659
 2018-Oct-27 09:33  m  21 00 01.637204 +21 41 32.09367
 2018-Oct-27 09:34  m  21 00 01.677524 +21 41 30.73076
 2018-Oct-27 09:35  m  21 00 01.717849 +21 41 29.36785
 2018-Oct-27 09:36  m  21 00 01.758179 +21 41 28.00495
 2018-Oct-27 09:37  m  21 00 01.798515 +21 41 26.64206
 2018-Oct-27 09:38  m  21 00 01.838855 +21 41 25.27918
 2018-Oct-27 09:39  m  21 00 01.879201 +21 41 23.91631
 2018-Oct-27 09:40  m  21 00 01.919553 +21 41 22.55345
 2018-Oct-27 09:41  m  21 00 01.959909 +21 41 21.19060
 2018-Oct-27 09:42  m  21 00 02.000271 +21 41 19.82775
 2018-Oct-27 09:43  m  21 00 02.040638 +21 41 18.46492
 2018-Oct-27 09:44  m  21 00 02.081010 +21 41 17.10209
 2018-Oct-27 09:45  m  21 00 02.121388 +21 41 15.73928
 2018-Oct-27 09:46  m  21 00 02.161771 +21 41 14.37647
 2018-Oct-27 09:47  m  21 00 02.202159 +21 41 13.01367
 2018-Oct-27 09:48  m  21 00 02.242552 +21 41 11.65089
 2018-Oct-27 09:49  m  21 00 02.282951 +21 41 10.28811
 2018-Oct-27 09:50  m  21 00 02.323355 +21 41 08.92534
 2018-Oct-27 09:51  m  21 00 02.363765 +21 41 07.56259
 2018-Oct-27 09:52  m  21 00 02.404180 +21 41 06.19984
 2018-Oct-27 09:53  m  21 00 02.444600 +21 41 04.83710
 2018-Oct-27 09:54  m  21 00 02.485026 +21 41 03.47438
 2018-Oct-27 09:55  m  21 00 02.525456 +21 41 02.11166
 2018-Oct-27 09:56  m  21 00 02.565893 +21 41 00.74896
 2018-Oct-27 09:57  m  21 00 02.606334 +21 40 59.38627
 2018-Oct-27 09:58  m  21 00 02.646782 +21 40 58.02358
 2018-Oct-27 09:59  m  21 00 02.687234 +21 40 56.66091
 2018-Oct-27 10:00  m  21 00 02.727692 +21 40 55.29825
 2018-Oct-27 10:01  m  21 00 02.768155 +21 40 53.93560
 2018-Oct-27 10:02  m  21 00 02.808624 +21 40 52.57297
 2018-Oct-27 10:03  m  21 00 02.849098 +21 40 51.21034
 2018-Oct-27 10:04  m  21 00 02.889577 +21 40 49.84773
 2018-Oct-27 10:05  m  21 00 02.930062 +21 40 48.48512
 2018-Oct-27 10:06  m  21 00 02.970552 +21 40 47.12253
 2018-Oct-27 10:07  m  21 00 03.011048 +21 40 45.75996
 2018-Oct-27 10:08  m  21 00 03.051549 +21 40 44.39739
 2018-Oct-27 10:09  m  21 00 03.092056 +21 40 43.03484
 2018-Oct-27 10:10  m  21 00 03.132568 +21 40 41.67230
 2018-Oct-27 10:11  m  21 00 03.173086 +21 40 40.30977
 2018-Oct-27 10:12  m  21 00 03.213609 +21 40 38.94725
 2018-Oct-27 10:13  m  21 00 03.254137 +21 40 37.58475
 2018-Oct-27 10:14  m  21 00 03.294671 +21 40 36.22226
